[{"OBJECT_NAME":"STELLA","OBJECT_ID":"1993-061B","EPOCH":"2026-03-09T22:50:14.153280","MEAN_MOTION":14.2746756,"ECCENTRICITY":0.00067535,"INCLINATION":98.784,"RA_OF_ASC_NODE":132.7988,"ARG_OF_PERICENTER":156.9855,"MEAN_ANOMALY":327.7404,"EPHEMERIS_TYPE":0,"CLASSIFICATION_TYPE":"U","NORAD_CAT_ID":22824,"ELEMENT_SET_NO":999,"REV_AT_EPOCH":69061,"BSTAR":7.617075e-6,"MEAN_MOTION_DOT":-2.6e-7,"MEAN_MOTION_DDOT":0},{"OBJECT_NAME":"CZ-6A DEB","OBJECT_ID":"2024-140KC","EPOCH":"2026-03-09T14:53:41.775360","MEAN_MOTION":14.15089581,"ECCENTRICITY":0.0072903,"INCLINATION":89.1136,"RA_OF_ASC_NODE":294.3383,"ARG_OF_PERICENTER":159.2433,"MEAN_ANOMALY":201.1742,"EPHEMERIS_TYPE":0,"CLASSIFICATION_TYPE":"U","NORAD_CAT_ID":60873,"ELEMENT_SET_NO":999,"REV_AT_EPOCH":8076,"BSTAR":0.00075225,"MEAN_MOTION_DOT":1.509e-5,"MEAN_MOTION_DDOT":0}]
